*******************************************************************************
 Revised: July 31, 2013             Moon / (Earth)                          301
 
 GEOPHYSICAL DATA (updated 2018-Aug-15):
  Vol. mean radius, km  = 1737.53+-0.03    Mass, x10^22 kg       =    7.349
  Radius (gravity), km  = 1738.0           Surface emissivity    =    0.92
  Radius (IAU), km      = 1737.4           GM, km^3/s^2          = 4902.800066
  Density, g/cm^3       =    3.3437        GM 1-sigma, km^3/s^2  =  +-0.0001  
  V(1,0)                =   +0.21          Surface accel., m/s^2 =    1.62
  Earth/Moon mass ratio = 81.3005690769    Farside crust. thick. = ~80 - 90 km
  Mean crustal density  = 2.97+-.07 g/cm^3 Nearside crust. thick.= 58+-8 km 
  Heat flow, Apollo 15  = 3.1+-.6 mW/m^2   Mean angular diameter = 31'05.2"
  Heat flow, Apollo 17  = 2.2+-.5 mW/m^2   Sid. rot. rate, rad/s = 0.0000026617
  Geometric Albedo      = 0.12             Mean solar day        = 29.5306 d
  Obliquity to orbit    = 6.67 deg         Orbit period          = 27.321582 d
  Semi-major axis, a    = 384400 km        Eccentricity          = 0.05490
  Mean motion, rad/s    = 2.6616995x10^-6  Inclination           = 5.145 deg
  Apsidal period        = 3231.50 d        Nodal period          = 6798.38 d
                                 Perihelion  Aphelion    Mean
  Solar Constant (W/m^2)         1414+-7     1323+-7     1368+-7
  Maximum Planetary IR (W/m^2)   1314        1226        1268
  Minimum Planetary IR (W/m^2)      5.2         5.2         5.2
********************************************************************************


*******************************************************************************
Ephemeris / WWW_USER Tue Oct  1 19:27:14 2024 Pasadena, USA      / Horizons
*******************************************************************************
Target body name: Moon (301)                      {source: DE441}
Center body name: Solar System Barycenter (0)     {source: DE441}
Center-site name: BODY CENTER
*******************************************************************************
Start time      : A.D. 2010-Jan-01 00:00:00.0000 TDB
Stop  time      : A.D. 2040-Jan-01 00:00:00.0000 TDB
Step-size       : 1440 minutes
*******************************************************************************
Center geodetic : 0.0, 0.0, 0.0                   {E-lon(deg),Lat(deg),Alt(km)}
Center cylindric: 0.0, 0.0, 0.0                   {E-lon(deg),Dxy(km),Dz(km)}
Center radii    : (undefined)
Output units    : KM-S
Calendar mode   : Mixed Julian/Gregorian
Output type     : GEOMETRIC cartesian states
Output format   : 3 (position, velocity, LT, range, range-rate)
Reference frame : Ecliptic of J2000.0
*******************************************************************************
JDTDB
   X     Y     Z
   VX    VY    VZ
   LT    RG    RR
*******************************************************************************
$$SOE
2457045.500000000 = A.D. 2015-Jan-23 00:00:00.0000 TDB 
 X =-7.820228742758174E+07 Y = 1.240194260455859E+08 Z =-6.388840649217367E+03
 VX=-2.517264004249537E+01 VY=-1.510358173738796E+01 VZ=-7.543481975526500E-02
 LT= 4.890602037103643E+02 RG= 1.466165605803108E+08 RR= 6.508199017504804E-01
2457046.500000000 = A.D. 2015-Jan-24 00:00:00.0000 TDB 
 X =-8.037559422562668E+07 Y = 1.226987362037172E+08 Z =-1.341932310055196E+04
 VX=-2.513664429608451E+01 VY=-1.547806384793478E+01 VZ=-8.639725756616379E-02
 LT= 4.892740183512588E+02 RG= 1.466806605970610E+08 RR= 8.265234695098189E-01
2457047.500000000 = A.D. 2015-Jan-25 00:00:00.0000 TDB 
 X =-8.254584118561096E+07 Y = 1.213430656581091E+08 Z =-2.115501503282040E+04
 VX=-2.509867787685938E+01 VY=-1.591313786711974E+01 VZ=-9.170964128068260E-02
 LT= 4.895325103651375E+02 RG= 1.467581545532750E+08 RR= 9.597046617487990E-01
2457048.500000000 = A.D. 2015-Jan-26 00:00:00.0000 TDB 
 X =-8.471207897533128E+07 Y = 1.199473077884817E+08 Z =-2.910271211112291E+04
 VX=-2.504114475314848E+01 VY=-1.640494882568833E+01 VZ=-9.134128655504803E-02
 LT= 4.898226475387980E+02 RG= 1.468451354897239E+08 RR= 1.045731911236515E+00
2457049.500000000 = A.D. 2015-Jan-27 00:00:00.0000 TDB 
 X =-8.687197082502882E+07 Y = 1.185068899048409E+08 Z =-3.678686155413836E+04
 VX=-2.494970904585536E+01 VY=-1.694531068405348E+01 VZ=-8.570745189886075E-02
 LT= 4.901306824164735E+02 RG= 1.469374820228519E+08 RR= 1.084117404226698E+00
2457050.500000000 = A.D. 2015-Jan-28 00:00:00.0000 TDB 
 X =-8.902210658581194E+07 Y = 1.170180661081071E+08 Z =-4.378165676824749E+04
 VX=-2.481387848347807E+01 VY=-1.752355775518475E+01 VZ=-7.551977771944252E-02
 LT= 4.904431943870823E+02 RG= 1.470311707546752E+08 RR= 1.077419168234959E+00
2457051.500000000 = A.D. 2015-Jan-29 00:00:00.0000 TDB 
 X =-9.115833042390683E+07 Y = 1.154780641170990E+08 Z =-4.973067879039794E+04
 VX=-2.462681143719717E+01 VY=-1.812802047931863E+01 VZ=-6.165370236367629E-02
 LT= 4.907478015500222E+02 RG= 1.471224896847774E+08 RR= 1.030116941723940E+00
2457052.500000000 = A.D. 2015-Jan-30 00:00:00.0000 TDB 
 X =-9.327603427303366E+07 Y = 1.138851271300282E+08 Z =-5.435668391457945E+04
 VX=-2.438478272046550E+01 VY=-1.874698075362274E+01 VZ=-4.505413819359738E-02
 LT= 4.910335820891190E+02 RG= 1.472081645350417E+08 RR= 9.477462868877689E-01
2457053.500000000 = A.D. 2015-Jan-31 00:00:00.0000 TDB 
 X =-9.537040212488581E+07 Y = 1.122384926825123E+08 Z =-5.746487271799892E+04
 VX=-2.408661636562246E+01 VY=-1.936920130534295E+01 VZ=-2.667734819726686E-02
 LT= 4.912912921560072E+02 RG= 1.472854240694455E+08 RR= 8.363479511303480E-01
2457054.500000000 = A.D. 2015-Feb-01 00:00:00.0000 TDB 
 X =-9.743660939821787E+07 Y = 1.105383380415634E+08 Z =-5.894227909824997E+04
 VX=-2.373322377635442E+01 VY=-1.998419909599070E+01 VZ=-7.457028799149334E-03
 LT= 4.915134628761284E+02 RG= 1.473520291757263E+08 RR= 7.021629753432306E-01
2457055.500000000 = A.D. 2015-Feb-02 00:00:00.0000 TDB 
 X =-9.946998778769989E+07 Y = 1.087857076338645E+08 Z =-5.875482331721485E+04
 VX=-2.332726219762587E+01 VY=-2.058240698514037E+01 VZ= 1.171759019833019E-02
 LT= 4.916944323454384E+02 RG= 1.474062824577537E+08 RR= 5.514696348846848E-01
2457056.500000000 = A.D. 2015-Feb-03 00:00:00.0000 TDB 
 X =-1.014661642882422E+08 Y = 1.069824281506056E+08 Z =-5.694268789657950E+04
 VX=-2.287286907923674E+01 VY=-2.115530555644430E+01 VZ= 3.001955552441071E-02
 LT= 4.918303403745887E+02 RG= 1.474470266598746E+08 RR= 3.904766813610238E-01
2457057.500000000 = A.D. 2015-Feb-04 00:00:00.0000 TDB 
 X =-1.034211785786383E+08 Y = 1.051310125721513E+08 Z =-5.361421035581827E+04
 VX=-2.237541904884933E+01 VY=-2.169554752688648E+01 VZ= 4.670083003852188E-02
 LT= 4.919190944048080E+02 RG= 1.474736344487514E+08 RR= 2.252255171585945E-01
2457058.500000000 = A.D. 2015-Feb-05 00:00:00.0000 TDB 
 X =-1.053315791168800E+08 Y = 1.032345542605861E+08 Z =-4.893840966055542E+04
 VX=-2.184127141245120E+01 VY=-2.219705879104010E+01 VZ= 6.110693710490622E-02
 LT= 4.919603069716906E+02 RG= 1.474859896654777E+08 RR= 6.149158404165880E-02
2457059.500000000 = A.D. 2015-Feb-06 00:00:00.0000 TDB 
 X =-1.071944968950390E+08 Y = 1.012966143505971E+08 Z =-4.313642138354480E+04
 VX=-2.127750810414035E+01 VY=-2.265508818884425E+01 VZ= 7.268714931764286E-02
 LT= 4.919552063971425E+02 RG= 1.474844605516967E+08 RR=-9.529878843920850E-02
2457060.500000000 = A.D. 2015-Feb-07 00:00:00.0000 TDB 
 X =-1.090076970446028E+08 Y = 9.932110774078177E+07 Z =-3.647232192850858E+04
 VX=-2.069168906514636E+01 VY=-2.306618915088586E+01 VZ= 8.099824548294876E-02
 LT= 4.919065288497071E+02 RG= 1.474698673901016E+08 RR=-2.401103336602992E-01
2457061.500000000 = A.D. 2015-Feb-08 00:00:00.0000 TDB 
 X =-1.107696114629869E+08 Y = 9.731219342771205E+07 Z =-2.924391483519971E+04
 VX=-2.009166408759654E+01 VY=-2.342814123295614E+01 VZ= 8.570184210137199E-02
 LT= 4.918184067618579E+02 RG= 1.474434490527812E+08 RR=-3.682801324269196E-01
2457062.500000000 = A.D. 2015-Feb-09 00:00:00.0000 TDB 
 X =-1.124793588756068E+08 Y = 9.527417302658075E+07 Z =-2.177394219709933E+04
 VX=-1.948547429927443E+01 VY=-2.373984706411753E+01 VZ= 8.655785590715048E-02
 LT= 4.916962719018912E+02 RG= 1.474068339429043E+08 RR=-4.754360640748320E-01
2457063.500000000 = A.D. 2015-Feb-10 00:00:00.0000 TDB 
 X =-1.141367608016522E+08 Y = 9.321139726134735E+07 Z =-1.440186032988876E+04
 VX=-1.888135554462552E+01 VY=-2.400126168622830E+01 VZ= 8.341894344095913E-02
 LT= 4.915467888444070E+02 RG= 1.473620200496717E+08 RR=-5.573727732627157E-01
2457064.500000000 = A.D. 2015-Feb-11 00:00:00.0000 TDB 
 X =-1.157423616562491E+08 Y = 9.112817472535481E+07 Z =-7.475826979007572E+03
 VX=-1.828782451088684E+01 VY=-2.421342228496214E+01 VZ= 7.623231081331916E-02
 LT= 4.913778252763983E+02 RG= 1.473113660463060E+08 RR=-6.099295020390472E-01
2457065.500000000 = A.D. 2015-Feb-12 00:00:00.0000 TDB 
 X =-1.172974579164843E+08 Y = 8.902867130539609E+07 Z =-1.343962854560465E+03
 VX=-1.771378889490122E+01 VY=-2.437864471319185E+01 VZ= 6.505584102406914E-02
 LT= 4.911984492488270E+02 RG= 1.472575904660941E+08 RR=-6.289389004676533E-01
2457066.500000000 = A.D. 2015-Feb-13 00:00:00.0000 TDB 
 X =-1.188041341944426E+08 Y = 8.691678360591803E+07 Z = 3.656623895425349E+03
 VX=-1.716857491135659E+01 VY=-2.450093359985820E+01 VZ= 5.009455941875807E-02
 LT= 4.910189199319148E+02 RG= 1.472037689308940E+08 RR=-6.103409146467362E-01
2457067.500000000 = A.D. 2015-Feb-14 00:00:00.0000 TDB 
 X =-1.202652925374085E+08 Y = 8.479596759208480E+07 Z = 7.214948656514287E+03
 VX=-1.666171210743762E+01 VY=-2.458660125667006E+01 VZ= 3.175974378840252E-02
 LT= 4.908506083826693E+02 RG= 1.471533103978359E+08 RR=-5.505736379363885E-01
2457068.500000000 = A.D. 2015-Feb-15 00:00:00.0000 TDB 
 X =-1.216846455413684E+08 Y = 8.266900816360065E+07 Z = 9.067161047894508E+03
 VX=-1.620227709449949E+01 VY=-2.464498551503473E+01 VZ= 1.074421564936578E-02
 LT= 4.907057533189393E+02 RG= 1.471098839422265E+08 RR=-4.473395284122059E-01
